{"type":"FeatureCollection","features":[{"type":"Feature","properties":{"name":"Atlantic Ocean"},"geometry":{"coordinates":[[[-66.6294592315734,44.74233597459282],[-68.1150973199297,44.23115043729344],[-70.03893911690466,43.50425288743175],[-70.5849272328337,42.768660891103806],[-70.37525685990369,42.22648941469866],[-69.81172439602835,42.14321930751804],[-69.72343418285534,41.25631617228022],[-70.6605304096395,41.12613275210005],[-73.5799083100892,40.59621532153615],[-73.82898282594552,40.087225760303554],[-74.4865158177348,39.09585760360396],[-75.09954847440906,38.186489116690794],[-75.73648116068554,37.32878305397462],[-75.70354734448188,36.86019922884637],[-75.85764765397522,36.25535601041547],[-75.53953477312574,35.85090655008493],[-76.01483695212617,35.23494731940406],[-76.33662302774097,34.7795128283271],[-77.17699809311468,34.45332146937322],[-77.77499591938084,33.925835778720824],[-78.81422126700453,33.54287356975995],[-79.50422797365562,32.70175607910825],[-80.74482128848555,31.972848802431926],[-81.40712775710396,30.427953429724596],[-79.9708066835847,26.92197302175488],[-80.13041871470327,25.44797718795104],[-77.73376627588864,25.046259749884342],[-77.40341476957583,23.712796753976193],[-78.7328707523611,22.82230157492944],[-73.71072354849471,20.61872505172805],[-72.08739226938252,20.791887720576057],[-67.1352532749861,18.880072016075275],[-60.77023594404881,17.875763043351412],[-60.48417111076013,14.178738536633105],[-59.191205245345266,13.134449253257912],[-59.251057474325066,12.934497671691862],[-61.07349583113363,12.997568606450564],[-61.3360762869123,11.544002668040505],[-35.35329293654916,-4.483178636747134],[-27.124320939789357,10.232566341179023],[-23.67982198994008,33.968445254639576],[-14.28183924907421,63.303926866306895],[-19.682600522999664,63.178321140629095],[-38.87471125710013,64.56586800876742],[-41.15750495694326,62.89993135352147],[-43.27418607572716,59.51109404856679],[-47.99569251439212,60.52964933670988],[-51.32744330316471,62.38550552133991],[-54.134475839952145,66.44639412267465],[-53.9467197672945,69.12777572307378],[-56.341962211102654,72.70832151114924],[-59.08092424233999,75.47327078020516],[-68.37618960759973,75.86226521677786],[-73.91602949532773,77.1502520400434],[-79.36193486017541,75.61653299815012],[-77.68491886503384,73.85406851175887],[-72.963602984041,72.07237131216434],[-67.13709914569144,70.21746324875885],[-66.1140823639588,69.22167393707547],[-67.56788369529023,68.8226158407221],[-61.07092122551524,66.86347621095125],[-61.40377095503544,65.9199408507468],[-64.0780994692964,64.64819287369919],[-62.80859539624075,59.69082839878983],[-57.53953826367807,55.278213579406085],[-55.30595816200251,53.4776751169734],[-54.96406412711952,51.943331814889255],[-55.28999987795618,50.41245748331434],[-53.63816113342689,49.80095476378797],[-52.35427470927749,48.317034864872525],[-52.5862699949342,46.602213671456425],[-53.56417002753571,46.487649500289805],[-56.18787940299677,46.77562038309985],[-57.91891197888201,47.42712263304743],[-59.280627024222085,46.779507398825686],[-60.06909387508422,45.465695779483426],[-61.98335596668481,44.87539947684185],[-64.25136509363382,44.064514524868045],[-65.50827930487758,43.12830295262394],[-66.29541565465318,43.67830774172354],[-66.6294592315734,44.74233597459282]]],"type":"Polygon"}},{"type":"Feature","properties":{"name":"Gulf of Mexico"},"geometry":{"coordinates":[[[-91.83613061059117,29.24983754842131],[-92.83440336277795,29.456935101879054],[-93.98801460396419,29.26096262553483],[-96.10256494860323,28.37356448003777],[-97.21710900716005,27.25361407121956],[-96.69776411787836,26.35032774568907],[-97.11155682302217,25.40309891633919],[-97.50661893941782,24.173022215085183],[-97.29865930014967,21.59148336066488],[-96.14514317460686,19.702773077308166],[-94.72536674509769,18.723235545930592],[-93.82143668816275,18.507311159644942],[-92.21765550915455,18.878618445960882],[-91.56327507383463,18.7523441008221],[-90.86371202969599,20.21273058406176],[-90.2154353120107,21.317743427603006],[-88.50965132869823,21.74182344664068],[-86.77091012749369,21.61013309189724],[-86.05897761263321,21.03351171321536],[-85.21574082192575,22.441089189800408],[-81.40517029529171,23.70956262754825],[-79.06682011750274,22.664755273977747],[-78.2488988248349,24.134767335594574],[-78.49563660134041,25.058360491939794],[-79.96937600219579,25.265206398482363],[-81.13558857056589,25.048508756783065],[-83.00756260411796,27.710521740749186],[-82.83101347390618,28.464155913266083],[-83.18235038355924,29.039990980846454],[-84.07099310684046,29.94231304403351],[-85.06085275660413,29.653650544935445],[-85.69835992277213,29.891792680309692],[-86.46572442574046,30.186226164823225],[-88.50278783349621,30.31502570405779],[-89.1808754314734,29.750324950725314],[-89.72230567888299,29.15763400112955],[-90.42361973222506,29.06919152374607],[-91.83613061059117,29.24983754842131]]],"type":"Polygon"}},{"type":"Feature","properties":{"name":"Hudson Bay"},"geometry":{"coordinates":[[[-90.05397751770192,63.64403703097318],[-90.88908478659843,62.824396990261846],[-93.00381218583496,61.86417373953378],[-94.7469857212117,59.85396789753324],[-94.47550975247188,58.85337754188873],[-93.1570657855332,58.7448435042071],[-92.31462121558323,57.6373379532192],[-92.45090134680959,57.08923901776987],[-90.95047032649748,57.39092138130562],[-88.01619482976,56.59136827934532],[-87.47803062228363,56.14067798335324],[-85.015952654221,55.40709410712739],[-82.14053649872275,55.1987836792417],[-82.07584065094291,54.972257443875975],[-82.26302930916975,54.16763684199873],[-82.00006859853309,53.35074022263393],[-80.88717536858753,53.18476572089796],[-80.64860243874224,52.65991264767442],[-81.62421657058925,52.61853956861631],[-80.77511404951471,51.97358434965875],[-80.35621208559118,51.478508577951686],[-79.93072376030742,51.284708356152436],[-79.57633950370764,51.64134928752182],[-79.25861884682718,51.668235224753175],[-78.78658891116282,52.28575594441983],[-79.06484499467064,52.68137903286856],[-79.37392818837736,53.89662555031785],[-79.839619554287,54.62751080809406],[-79.4020109765594,54.86175734918393],[-77.96811934801055,55.27869019611228],[-76.93254751357193,56.000459048874376],[-76.77584565280854,56.96014045666132],[-77.26907785856613,57.82419655847323],[-78.99382386458025,58.67868819303152],[-78.45644868543687,59.0809189996358],[-77.73653511545541,59.87312824598695],[-78.02675083013332,60.61299697215679],[-78.80714641403253,60.69084712768574],[-78.02599667675341,61.21251232751982],[-78.34786835906729,62.17179145675203],[-77.5408496220769,62.67391714468923],[-77.73096062449329,62.95887158774667],[-78.81138599196969,63.339743143657216],[-78.08687760446865,63.81915515852617],[-78.15638445205914,64.23478956389744],[-78.25770256799976,64.82567978915759],[-77.55986423393954,65.51828516352873],[-76.00112178907992,65.39785096297527],[-74.80216311023165,65.47637120418],[-74.19350693505947,65.76834502243676],[-74.4760837593216,66.31589099945256],[-76.19980297734793,67.09745181153775],[-77.12091548411131,67.15494467123646],[-77.70231149000402,68.06111919320497],[-79.49449553289284,68.22406908334926],[-79.1277222322564,68.704263762261],[-80.87406760066108,69.46693940940472],[-81.06820530956918,68.67427906198142],[-81.77166000905383,67.99515054399168],[-81.02506246964597,67.33896164661101],[-81.92084476016574,66.75680038883817],[-82.63072494064582,66.27359390854772],[-83.5689017231328,65.68944752242217],[-83.68951081764996,65.29111005430337],[-81.20097544366885,64.38921205321162],[-80.01700577289571,63.721705894537735],[-80.62813355401963,63.4434545616094],[-82.33303926317345,63.53158299796192],[-83.74039267991824,63.57455454876546],[-83.05894417909832,63.07874374804351],[-81.66882604722355,63.071415935611896],[-79.03805059660083,62.39322688138924],[-79.20416315878454,61.99005177471298],[-79.82976767510695,61.542720667933054],[-80.37389549151375,61.657452554478255],[-80.12667707036378,62.465582279776044],[-80.44687596993121,62.66156093504853],[-81.74463662467967,62.696449590804775],[-82.904850346011,62.16187809716865],[-83.70463374064704,62.07869046856803],[-84.26161638172766,62.46217031167535],[-83.62491877061994,62.91621585144176],[-84.09530495719427,63.324870510857835],[-85.26235204857551,63.00953025611474],[-85.9727047391387,63.06094506462486],[-85.82684801193852,63.56319958342331],[-87.05561947580047,63.44106577832616],[-88.00258783732828,64.03663449563018],[-90.05397751770192,63.64403703097318]]],"type":"Polygon"}},{"type":"Feature","properties":{"name":"Caribbean Sea"},"geometry":{"coordinates":[[[-80.59607760148235,21.883689206429352],[-82.48036376064191,22.40153431198661],[-83.73649828948446,22.05285156088864],[-85.92172619260579,20.922202369329028],[-86.87020680009338,20.09707881076396],[-88.32964150041956,16.065151235174483],[-84.32315310421565,16.11920591133513],[-82.95490187286624,15.514282436637856],[-83.51885619754562,11.540975486389115],[-82.76781790175214,9.979136399573605],[-81.22801847920246,9.292108839405131],[-79.26557135150766,9.768211468210254],[-77.61584076009785,9.30445295833276],[-76.0345389250585,9.270954021114093],[-75.80938832625417,10.402937506007731],[-74.40689958642469,11.490493641325315],[-72.41266122250849,12.588521302860798],[-70.54426172955321,12.686289892235635],[-68.34525352808595,11.65904213333691],[-67.14042195662941,10.980808441391346],[-64.9290050976856,10.770065303424559],[-63.245146277882384,11.315157644195537],[-62.01751750114141,10.728071090510895],[-61.42100244752325,11.635645992417054],[-61.25136048870036,13.191034425129075],[-61.590056995377466,15.021173141426374],[-62.75523052010112,17.20083034594171],[-64.96731900105804,17.614508293705384],[-68.35437754590262,17.955720420296643],[-69.85446628950722,18.015101114482533],[-71.06989938304986,17.627924941637602],[-71.92092744956312,17.70642847635932],[-72.99784091397777,17.958429474397803],[-74.33974493362234,17.909409378056097],[-74.75635214103684,18.509865828916816],[-73.85378792271692,18.912300041223148],[-74.05780720691791,19.611477507065075],[-75.48151542151615,19.53881338544076],[-76.16170791642928,17.72670166163377],[-78.16071991073476,17.75394570095841],[-78.64512762845729,18.4238655722893],[-76.9390990118234,18.63655797707011],[-76.18454241057917,18.52032217705178],[-75.65612304095536,19.5579468695951],[-77.83103180173637,19.71242179746143],[-77.61017096248644,20.410405210753993],[-79.77922493763576,21.409683458446167],[-80.59607760148235,21.883689206429352]]],"type":"Polygon"}},{"type":"Feature","properties":{"name":"Pacific Ocean"},"geometry":{"coordinates":[[[-168.18546176888822,52.663197172017135],[-179.4103539369248,50.631804596383475],[-188.71916818330178,52.28401566164948],[-180.17357166449096,24.85233723658878],[-176.29759085417038,-2.078502471866315],[-148.48220889266466,-1.2982766009030087],[-155.63186088904112,18.770656428482525],[-156.1091911701976,19.133768591026502],[-156.37874716336523,20.105276739905225],[-157.24233378412058,20.975054260671868],[-158.0642031197626,21.143087415281677],[-158.91709738572834,21.70045442863091],[-159.79088422256538,21.837425682859347],[-160.15142765510512,21.727279652638934],[-160.4448116832702,21.807073249278048],[-159.81241446815096,22.32864275799649],[-159.21962446625665,22.23647133008629],[-158.93273397279634,21.899763410046113],[-158.0479355303285,21.81084436375527],[-157.2486808787492,21.607146142989606],[-155.9097804024846,20.93532661066014],[-154.73271937113915,19.72807912387671],[-154.6603931653606,19.395449448518868],[-155.6064147815669,18.780066424648552],[-148.39962672373656,-1.23044895650402],[-77.64954870880503,4.9049418821289805],[-77.97518512022063,6.700698315096737],[-80.43819604243681,6.867502383052834],[-82.72892100444112,7.740928066730405],[-86.05723099174402,9.853433190378652],[-86.14383040604774,11.131788926442859],[-88.46800117557588,13.020781514951452],[-92.42937892711689,14.510223072396656],[-94.56245654581465,16.046764917257804],[-96.84066998237822,15.449442073031548],[-103.24383205606813,17.88385220759784],[-105.57001884250786,19.648516929286487],[-106.48734329524214,23.12587196088849],[-108.69919980756913,23.84737293557282],[-109.84561777943179,22.58961840182974],[-112.386843584026,24.69217788010893],[-112.65384729678587,26.108630675838086],[-114.0099547426511,26.783421510939924],[-115.85558764437448,28.082926519240544],[-114.470407033463,28.600990642542314],[-115.76787485065219,29.73366490181249],[-117.75254259269641,33.36557994762812],[-120.64571382174807,34.474155334997334],[-123.05955246762173,37.419969238467104],[-124.59110782044564,40.3910461771616],[-124.33023927555755,41.367982900116914],[-124.61299485611016,42.855537725513244],[-124.02408944668662,45.1772183458385],[-124.43864514900366,48.475917276225346],[-128.8510644019228,50.73538938343523],[-132.65338493008647,52.71243014248648],[-133.82862263364518,55.1441271757667],[-138.10152549937615,58.81782397727747],[-141.39814842634974,59.783798763658],[-145.6872940886109,60.07748710570041],[-147.45622573030977,59.662596854191534],[-149.08591380687977,59.722714525820635],[-151.90649714786926,58.84801318273588],[-151.7490201171115,57.927029762482476],[-152.42541433600096,57.153448295333604],[-154.70845110819525,56.05447466561236],[-155.46228856075498,57.13336291376035],[-159.13858236356393,55.49176349446489],[-168.18546176888822,52.663197172017135]]],"type":"Polygon"}}]}