{"type":"FeatureCollection","features":[{"type":"Feature","properties":{},"geometry":{"coordinates":[[[-170.93161372747429,51.89554990280834],[-170.93161372747429,25.89196043812889],[-128.59758433853767,25.89196043812889],[-128.59758433853767,51.89554990280834],[-170.93161372747429,51.89554990280834]]],"type":"Polygon"}},{"type":"Feature","properties":{},"geometry":{"coordinates":[[[-169.78755602641886,25.617221020082894],[-169.78755602641886,22.271657871807335],[-113.11335091654514,22.271657871807335],[-113.11335091654514,25.617221020082894],[-169.78755602641886,25.617221020082894]]],"type":"Polygon"}},{"type":"Feature","properties":{},"geometry":{"coordinates":[[[-117.232337559793,21.91827943857146],[-117.232337559793,-2.3162644181266785],[-105.79070735006236,-2.3162644181266785],[-105.79070735006236,21.91827943857146],[-117.232337559793,21.91827943857146]]],"type":"Polygon"}},{"type":"Feature","properties":{},"geometry":{"coordinates":[[[-80.9242324297143,-3.2305129285566494],[-80.9242324297143,7.047403009628738],[-105.71442981963192,7.047403009628738],[-105.71442981963192,-3.2305129285566494],[-80.9242324297143,-3.2305129285566494]]],"type":"Polygon"}},{"type":"Feature","properties":{},"geometry":{"coordinates":[[[-105.86698488049305,22.13041259076637],[-154.53204929516204,22.13041259076637],[-154.53204929516204,-3.2305129285566494],[-105.86698488049305,-3.2305129285566494],[-105.86698488049305,22.13041259076637]]],"type":"Polygon"},"id":5},{"type":"Feature","properties":{},"geometry":{"coordinates":[[[-117.76627962765338,33.502535950129385],[-128.8265215400781,33.502535950129385],[-128.8265215400781,25.754700914365642],[-117.76627962765338,25.754700914365642],[-117.76627962765338,33.502535950129385]]],"type":"Polygon"}},{"type":"Feature","properties":{},"geometry":{"coordinates":[[[-124.78381242726098,48.12363862309118],[-128.75024400964764,48.12363862309118],[-128.75024400964764,33.62965218824006],[-124.78381242726098,33.62965218824006],[-124.78381242726098,48.12363862309118]]],"type":"Polygon"}},{"type":"Feature","properties":{},"geometry":{"coordinates":[[[-122.8005966360675,37.35461624100955],[-124.78381242726098,37.35461624100955],[-124.78381242726098,33.566117460820905],[-122.8005966360675,33.566117460820905],[-122.8005966360675,37.35461624100955]]],"type":"Polygon"}},{"type":"Feature","properties":{},"geometry":{"coordinates":[[[-88.09432029018274,12.978726110165127],[-105.56187788442068,12.978726110165127],[-105.56187788442068,7.425752921331309],[-88.09432029018274,7.425752921331309],[-88.09432029018274,12.978726110165127]]],"type":"Polygon"}},{"type":"Feature","properties":{},"geometry":{"coordinates":[[[-93.51002807639928,15.565792166003234],[-105.56187788442068,15.565792166003234],[-105.56187788442068,13.201613195487894],[-93.51002807639928,13.201613195487894],[-93.51002807639928,15.565792166003234]]],"type":"Polygon"}},{"type":"Feature","properties":{},"geometry":{"coordinates":[[[-96.78998354262346,28.067052683044764],[-96.78998354262346,23.536361265157808],[-82.83119547383916,23.536361265157808],[-82.83119547383916,28.067052683044764],[-96.78998354262346,28.067052683044764]]],"type":"Polygon"}},{"type":"Feature","properties":{},"geometry":{"coordinates":[[[-80.27091227636343,27.483100494691016],[-39.965576946758404,27.483100494691016],[-39.965576946758404,32.51596437790245],[-80.27091227636343,32.51596437790245],[-80.27091227636343,27.483100494691016]]],"type":"Polygon"}},{"type":"Feature","properties":{},"geometry":{"coordinates":[[[-75.38141258064053,27.336459038785264],[-75.38141258064053,24.333712295513806],[-39.89950262654597,24.333712295513806],[-39.89950262654597,27.336459038785264],[-75.38141258064053,27.336459038785264]]],"type":"Polygon"}},{"type":"Feature","properties":{},"geometry":{"coordinates":[[[-39.80039114622738,24.303606549174603],[-72.8045140923542,24.303606549174603],[-72.8045140923542,20.207586447118203],[-39.80039114622738,20.207586447118203],[-39.80039114622738,24.303606549174603]]],"type":"Polygon"}},{"type":"Feature","properties":{},"geometry":{"coordinates":[[[-79.10606689692597,33.536027100051484],[-79.10606689692597,32.705984170411526],[-39.95708896859398,32.705984170411526],[-39.95708896859398,33.536027100051484],[-79.10606689692597,33.536027100051484]]],"type":"Polygon"}},{"type":"Feature","properties":{},"geometry":{"coordinates":[[[-77.75160013012552,34.276357619098704],[-77.75160013012552,33.64612831959771],[-39.95708896859398,33.64612831959771],[-39.95708896859398,34.276357619098704],[-77.75160013012552,34.276357619098704]]],"type":"Polygon"}},{"type":"Feature","properties":{},"geometry":{"coordinates":[[[-76.29796508545095,35.36121589914396],[-76.29796508545095,34.41274484281068],[-39.924051808487775,34.41274484281068],[-39.924051808487775,35.36121589914396],[-76.29796508545095,35.36121589914396]]],"type":"Polygon"}},{"type":"Feature","properties":{},"geometry":{"coordinates":[[[-75.00951584130824,38.812532980608495],[-75.00951584130824,35.52270869626207],[-39.95708896859398,35.52270869626207],[-39.95708896859398,38.812532980608495],[-75.00951584130824,38.812532980608495]]],"type":"Polygon"}},{"type":"Feature","properties":{},"geometry":{"coordinates":[[[-73.95232671790895,40.5163194109214],[-73.95232671790895,38.9925030324072],[-39.924051808487775,38.9925030324072],[-39.924051808487775,40.5163194109214],[-73.95232671790895,40.5163194109214]]],"type":"Polygon"}},{"type":"Feature","properties":{},"geometry":{"coordinates":[[[-39.990126128700155,40.71694256612463],[-39.990126128700155,43.390154061978365],[-69.88875602484185,43.390154061978365],[-69.88875602484185,40.71694256612463],[-39.990126128700155,40.71694256612463]]],"type":"Polygon"}},{"type":"Feature","properties":{},"geometry":{"coordinates":[[[-40.010876581541226,43.53012559918375],[-40.010876581541226,44.362629088568895],[-64.2601520995169,44.362629088568895],[-64.2601520995169,43.53012559918375],[-40.010876581541226,43.53012559918375]]],"type":"Polygon"}},{"type":"Feature","properties":{},"geometry":{"coordinates":[[[-39.97783942143502,44.48060615474992],[-39.97783942143502,45.020234001079956],[-61.914513731974054,45.020234001079956],[-61.914513731974054,44.48060615474992],[-39.97783942143502,44.48060615474992]]],"type":"Polygon"}},{"type":"Feature","properties":{},"geometry":{"coordinates":[[[-40.04391374164746,45.206749600225976],[-40.04391374164746,46.63158334995185],[-59.76709832506839,46.63158334995185],[-59.76709832506839,45.206749600225976],[-40.04391374164746,45.206749600225976]]],"type":"Polygon"}},{"type":"Feature","properties":{},"geometry":{"coordinates":[[[-40.04391374164746,46.76752930770769],[-40.04391374164746,55.031220437323384],[-52.531960261803476,55.031220437323384],[-52.531960261803476,46.76752930770769],[-40.04391374164746,46.76752930770769]]],"type":"Polygon"}},{"type":"Feature","properties":{},"geometry":{"coordinates":[[[-40.04390847009901,55.10688995944824],[-40.04390847009901,59.791876089503035],[-58.74294109022695,59.791876089503035],[-58.74294109022695,55.10688995944824],[-40.04390847009901,55.10688995944824]]],"type":"Polygon"}},{"type":"Feature","properties":{},"geometry":{"coordinates":[[[-53.36489219027928,65.76173192991169],[-63.34211454236157,65.76173192991169],[-63.34211454236157,59.28190127615528],[-53.36489219027928,59.28190127615528],[-53.36489219027928,65.76173192991169]]],"type":"Polygon"}},{"type":"Feature","properties":{},"geometry":{"coordinates":[[[-50.325473460505265,62.61525058841241],[-61.06255049503109,62.61525058841241],[-61.06255049503109,56.16142581570588],[-50.325473460505265,56.16142581570588],[-50.325473460505265,62.61525058841241]]],"type":"Polygon"}},{"type":"Feature","properties":{},"geometry":{"coordinates":[[[-45.582733430870235,60.40831343201492],[-55.39476998242155,60.40831343201492],[-55.39476998242155,49.894542617413464],[-45.582733430870235,49.894542617413464],[-45.582733430870235,60.40831343201492]]],"type":"Polygon"}},{"type":"Feature","properties":{},"geometry":{"coordinates":[[[-59.59048301322218,47.34004746042646],[-59.59048301322218,48.75343578351479],[-63.62101654618307,48.75343578351479],[-63.62101654618307,47.34004746042646],[-59.59048301322218,47.34004746042646]]],"type":"Polygon"}},{"type":"Feature","properties":{},"geometry":{"coordinates":[[[-134.28219331076312,51.90229671418379],[-134.28219331076312,55.451440116819185],[-159.2484294535679,55.451440116819185],[-159.2484294535679,51.90229671418379],[-134.28219331076312,51.90229671418379]]],"type":"Polygon"}},{"type":"Feature","properties":{},"geometry":{"coordinates":[[[-136.24460488530679,55.54407218826745],[-136.24460488530679,57.760767494731454],[-151.8893860490294,57.760767494731454],[-151.8893860490294,55.54407218826745],[-136.24460488530679,55.54407218826745]]],"type":"Polygon"}},{"type":"Feature","properties":{},"geometry":{"coordinates":[[[-139.18822224712216,57.87689811803551],[-139.18822224712216,59.352860568549005],[-150.47208880074785,59.352860568549005],[-150.47208880074785,57.87689811803551],[-139.18822224712216,57.87689811803551]]],"type":"Polygon"}},{"type":"Feature","properties":{},"geometry":{"coordinates":[[[-159.44724687143287,52.08001066384773],[-159.44724687143287,54.17289719415325],[-164.89839013405404,54.17289719415325],[-164.89839013405404,52.08001066384773],[-159.44724687143287,52.08001066384773]]],"type":"Polygon"}},{"type":"Feature","properties":{},"geometry":{"coordinates":[[[-160.9735669849668,56.22565717922845],[-160.9735669849668,58.40327793974612],[-169.25930474415097,58.40327793974612],[-169.25930474415097,56.22565717922845],[-160.9735669849668,56.22565717922845]]],"type":"Polygon"}},{"type":"Feature","properties":{},"geometry":{"coordinates":[[[-163.15402429001526,58.54579170762878],[-163.15402429001526,59.63770654792816],[-168.9867475810199,59.63770654792816],[-168.9867475810199,58.54579170762878],[-163.15402429001526,58.54579170762878]]],"type":"Polygon"}},{"type":"Feature","properties":{},"geometry":{"coordinates":[[[-62.152849820307765,12.22269396687291],[-62.152849820307765,16.677696188760507],[-83.0329043557819,16.677696188760507],[-83.0329043557819,12.22269396687291],[-62.152849820307765,12.22269396687291]]],"type":"Polygon"}},{"type":"Feature","properties":{},"geometry":{"coordinates":[[[-87.42870531061833,16.644795794996355],[-78.43105023118721,16.644795794996355],[-78.43105023118721,20.38887581996451],[-87.42870531061833,20.38887581996451],[-87.42870531061833,16.644795794996355]]],"type":"Polygon"}},{"type":"Feature","properties":{},"geometry":{"coordinates":[[[-91.01224188180154,19.23777844354349],[-91.01224188180154,23.521651329727476],[-96.16357112575076,23.521651329727476],[-96.16357112575076,19.23777844354349],[-91.01224188180154,19.23777844354349]]],"type":"Polygon"}},{"type":"Feature","properties":{},"geometry":{"coordinates":[[[-85.20841093361845,21.87424011986441],[-85.20841093361845,23.55313624107572],[-97.29686355941939,23.55313624107572],[-97.29686355941939,21.87424011986441],[-85.20841093361845,21.87424011986441]]],"type":"Polygon"}},{"type":"Feature","properties":{},"geometry":{"coordinates":[[[-95.13330527696101,28.065236515815002],[-83.07919484611924,28.065236515815002],[-83.07919484611924,29.030555929448894],[-95.13330527696101,29.030555929448894],[-95.13330527696101,28.065236515815002]]],"type":"Polygon"}},{"type":"Feature","properties":{},"geometry":{"coordinates":[[[-83.54003894493161,29.069298826974816],[-83.54003894493161,29.562539700649637],[-88.88052986482013,29.562539700649637],[-88.88052986482013,29.069298826974816],[-83.54003894493161,29.069298826974816]]],"type":"Polygon"}},{"type":"Feature","properties":{},"geometry":{"coordinates":[[[-91.63912239810918,29.028213823331427],[-91.63912239810918,29.32121933555507],[-94.72644389937328,29.32121933555507],[-94.72644389937328,29.028213823331427],[-91.63912239810918,29.028213823331427]]],"type":"Polygon"}},{"type":"Feature","properties":{},"geometry":{"coordinates":[[[-80.5581179948103,62.112109945967575],[-92.30421748038209,62.112109945967575],[-92.30421748038209,57.24234992957483],[-80.5581179948103,57.24234992957483],[-80.5581179948103,62.112109945967575]]],"type":"Polygon"}},{"type":"Feature","properties":{},"geometry":{"coordinates":[[[-80.4000987192198,55.342810100014674],[-80.4000987192198,57.142462403410065],[-84.90364807355373,57.142462403410065],[-84.90364807355373,55.342810100014674],[-80.4000987192198,55.342810100014674]]],"type":"Polygon"}},{"type":"Feature","properties":{},"geometry":{"coordinates":[[[-80.08406016803883,58.57145744381313],[-87.93235085570761,58.57145744381313],[-87.93235085570761,56.406523653127095],[-80.08406016803883,56.406523653127095],[-80.08406016803883,58.57145744381313]]],"type":"Polygon"}},{"type":"Feature","properties":{},"geometry":{"coordinates":[[[-85.79909063523388,63.47252790252162],[-90.51333235702178,63.47252790252162],[-90.51333235702178,62.112109945967575],[-85.79909063523388,62.112109945967575],[-85.79909063523388,63.47252790252162]]],"type":"Polygon"}}]}